[{"OBJECT_NAME":"NESS","OBJECT_ID":"2023-155E","EPOCH":"2026-03-09T18:20:54.923712","MEAN_MOTION":15.26794015,"ECCENTRICITY":0.00068914,"INCLINATION":97.5941,"RA_OF_ASC_NODE":152.6141,"ARG_OF_PERICENTER":179.8776,"MEAN_ANOMALY":180.2465,"EPHEMERIS_TYPE":0,"CLASSIFICATION_TYPE":"U","NORAD_CAT_ID":58020,"ELEMENT_SET_NO":999,"REV_AT_EPOCH":13330,"BSTAR":0.00074047066,"MEAN_MOTION_DOT":0.00019469,"MEAN_MOTION_DDOT":0},{"OBJECT_NAME":"STARLINK-36452","OBJECT_ID":"2026-005B","EPOCH":"2026-03-09T12:19:00.540480","MEAN_MOTION":15.27588633,"ECCENTRICITY":0.00033241,"INCLINATION":43.0013,"RA_OF_ASC_NODE":238.6207,"ARG_OF_PERICENTER":284.824,"MEAN_ANOMALY":75.2244,"EPHEMERIS_TYPE":0,"CLASSIFICATION_TYPE":"U","NORAD_CAT_ID":67405,"ELEMENT_SET_NO":999,"REV_AT_EPOCH":867,"BSTAR":0.0012665096,"MEAN_MOTION_DOT":0.00034766,"MEAN_MOTION_DDOT":0}]
