NESS                    
1 58020U 23155E   26068.76452457  .00019469  00000+0  74047-3 0  9996
2 58020  97.5941 152.6141 0006891 179.8776 180.2465 15.26794015133307
STARLINK-36452          
1 67405U 26005B   26068.51320070  .00034766  00000+0  12665-2 0  9992
2 67405  43.0013 238.6207 0003324 284.8240  75.2244 15.27588633  8676
